{
  "norad_id": 37948,
  "name": "BEIDOU-2 IGSO-5",
  "history": [
    {
      "epoch": "2026-03-28T11:48:15.484896",
      "apogee_km": 36248.9875199941,
      "perigee_km": 35327.109054384,
      "latitude_deg": 9.448012798442136,
      "longitude_deg": -177.98279456002638,
      "semi_major_axis_km": 42166.18528718905,
      "eccentricity": 0.01093149,
      "inclination_deg": 47.8262,
      "raan_deg": 272.5386,
      "arg_perigee_deg": 220.7131,
      "mean_anomaly_deg": 324.4481,
      "mean_motion_rev_day": 1.00266601
    }
  ]
}